[{"OBJECT_NAME":"ONEWEB-0275","OBJECT_ID":"2021-060AC","EPOCH":"2026-05-23T07:15:28.925568","MEAN_MOTION":13.16592494,"ECCENTRICITY":0.0002004,"INCLINATION":87.9106,"RA_OF_ASC_NODE":233.7158,"ARG_OF_PERICENTER":97.2228,"MEAN_ANOMALY":262.9131,"EPHEMERIS_TYPE":0,"CLASSIFICATION_TYPE":"U","NORAD_CAT_ID":48993,"ELEMENT_SET_NO":999,"REV_AT_EPOCH":23628,"BSTAR":0.00019073,"MEAN_MOTION_DOT":8.6e-07,"MEAN_MOTION_DDOT":0.0},{"OBJECT_NAME":"ONEWEB-0276","OBJECT_ID":"2021-060AD","EPOCH":"2026-05-23T11:42:13.371264","MEAN_MOTION":13.16592892,"ECCENTRICITY":0.0002122,"INCLINATION":87.9111,"RA_OF_ASC_NODE":233.6791,"ARG_OF_PERICENTER":97.0649,"MEAN_ANOMALY":263.0724,"EPHEMERIS_TYPE":0,"CLASSIFICATION_TYPE":"U","NORAD_CAT_ID":48994,"ELEMENT_SET_NO":999,"REV_AT_EPOCH":23632,"BSTAR":8.7722e-05,"MEAN_MOTION_DOT":4.6e-07,"MEAN_MOTION_DDOT":0.0},{"OBJECT_NAME":"ONEWEB-0277","OBJECT_ID":"2021-060AE","EPOCH":"2026-05-23T12:00:27.537408","MEAN_MOTION":13.16592273,"ECCENTRICITY":0.0001845,"INCLINATION":87.9103,"RA_OF_ASC_NODE":233.6865,"ARG_OF_PERICENTER":98.3877,"MEAN_ANOMALY":261.7463,"EPHEMERIS_TYPE":0,"CLASSIFICATION_TYPE":"U","NORAD_CAT_ID":48995,"ELEMENT_SET_NO":999,"REV_AT_EPOCH":23631,"BSTAR":7.4195e-05,"MEAN_MOTION_DOT":4.1e-07,"MEAN_MOTION_DDOT":0.0},{"OBJECT_NAME":"ONEWEB-0278","OBJECT_ID":"2021-060AF","EPOCH":"2026-05-23T11:46:48.620064","MEAN_MOTION":13.16595715,"ECCENTRICITY":0.0002071,"INCLINATION":87.9113,"RA_OF_ASC_NODE":233.677,"ARG_OF_PERICENTER":107.2395,"MEAN_ANOMALY":252.8962,"EPHEMERIS_TYPE":0,"CLASSIFICATION_TYPE":"U","NORAD_CAT_ID":48996,"ELEMENT_SET_NO":999,"REV_AT_EPOCH":23644,"BSTAR":3.6873000000000004e-05,"MEAN_MOTION_DOT":2.7e-07,"MEAN_MOTION_DDOT":0.0},{"OBJECT_NAME":"ONEWEB-0279","OBJECT_ID":"2021-060AG","EPOCH":"2026-05-23T11:58:11.542080","MEAN_MOTION":13.16593893,"ECCENTRICITY":0.0001936,"INCLINATION":87.9111,"RA_OF_ASC_NODE":233.6739,"ARG_OF_PERICENTER":93.0329,"MEAN_ANOMALY":267.1024,"EPHEMERIS_TYPE":0,"CLASSIFICATION_TYPE":"U","NORAD_CAT_ID":48997,"ELEMENT_SET_NO":999,"REV_AT_EPOCH":23637,"BSTAR":0.00022491,"MEAN_MOTION_DOT":9.9e-07,"MEAN_MOTION_DDOT":0.0},{"OBJECT_NAME":"ONEWEB-0280","OBJECT_ID":"2021-060AH","EPOCH":"2026-05-23T06:51:32.066784","MEAN_MOTION":13.16595889,"ECCENTRICITY":0.0001693,"INCLINATION":87.9108,"RA_OF_ASC_NODE":233.7203,"ARG_OF_PERICENTER":107.3857,"MEAN_ANOMALY":252.7459,"EPHEMERIS_TYPE":0,"CLASSIFICATION_TYPE":"U","NORAD_CAT_ID":48998,"ELEMENT_SET_NO":999,"REV_AT_EPOCH":23628,"BSTAR":-0.00012942999999999999,"MEAN_MOTION_DOT":-3.7e-07,"MEAN_MOTION_DDOT":0.0},{"OBJECT_NAME":"ONEWEB-0281","OBJECT_ID":"2021-060AJ","EPOCH":"2026-05-23T12:27:50.363424","MEAN_MOTION":13.16593769,"ECCENTRICITY":0.0002042,"INCLINATION":87.9104,"RA_OF_ASC_NODE":233.6686,"ARG_OF_PERICENTER":102.6083,"MEAN_ANOMALY":257.5276,"EPHEMERIS_TYPE":0,"CLASSIFICATION_TYPE":"U","NORAD_CAT_ID":48999,"ELEMENT_SET_NO":999,"REV_AT_EPOCH":23638,"BSTAR":7.3059e-05,"MEAN_MOTION_DOT":4.1e-07,"MEAN_MOTION_DDOT":0.0},{"OBJECT_NAME":"ONEWEB-0282","OBJECT_ID":"2021-060AK","EPOCH":"2026-05-23T13:11:09.975264","MEAN_MOTION":13.16595553,"ECCENTRICITY":0.0001849,"INCLINATION":87.9109,"RA_OF_ASC_NODE":233.6721,"ARG_OF_PERICENTER":100.9923,"MEAN_ANOMALY":259.1416,"EPHEMERIS_TYPE":0,"CLASSIFICATION_TYPE":"U","NORAD_CAT_ID":49000,"ELEMENT_SET_NO":999,"REV_AT_EPOCH":23636,"BSTAR":0.00013798,"MEAN_MOTION_DOT":6.6e-07,"MEAN_MOTION_DDOT":0.0},{"OBJECT_NAME":"ONEWEB-0283","OBJECT_ID":"2021-060AL","EPOCH":"2026-05-23T07:26:52.223424","MEAN_MOTION":13.16593708,"ECCENTRICITY":0.0001901,"INCLINATION":87.9103,"RA_OF_ASC_NODE":233.719,"ARG_OF_PERICENTER":96.0836,"MEAN_ANOMALY":264.0511,"EPHEMERIS_TYPE":0,"CLASSIFICATION_TYPE":"U","NORAD_CAT_ID":49001,"ELEMENT_SET_NO":999,"REV_AT_EPOCH":23634,"BSTAR":-0.0003563,"MEAN_MOTION_DOT":-1.23e-06,"MEAN_MOTION_DDOT":0.0},{"OBJECT_NAME":"ONEWEB-0284","OBJECT_ID":"2021-060AM","EPOCH":"2026-05-23T07:17:45.662208","MEAN_MOTION":13.1659213,"ECCENTRICITY":0.0001855,"INCLINATION":87.9107,"RA_OF_ASC_NODE":233.713,"ARG_OF_PERICENTER":110.0479,"MEAN_ANOMALY":250.0852,"EPHEMERIS_TYPE":0,"CLASSIFICATION_TYPE":"U","NORAD_CAT_ID":49002,"ELEMENT_SET_NO":999,"REV_AT_EPOCH":23632,"BSTAR":0.00023877000000000002,"MEAN_MOTION_DOT":1.04e-06,"MEAN_MOTION_DDOT":0.0},{"OBJECT_NAME":"ONEWEB-0285","OBJECT_ID":"2021-075A","EPOCH":"2026-05-23T12:17:08.056320","MEAN_MOTION":13.12440775,"ECCENTRICITY":0.0001724,"INCLINATION":87.896,"RA_OF_ASC_NODE":355.5689,"ARG_OF_PERICENTER":85.3458,"MEAN_ANOMALY":274.7867,"EPHEMERIS_TYPE":0,"CLASSIFICATION_TYPE":"U","NORAD_CAT_ID":49075,"ELEMENT_SET_NO":999,"REV_AT_EPOCH":23197,"BSTAR":0.0006132300000000001,"MEAN_MOTION_DOT":2.33e-06,"MEAN_MOTION_DDOT":0.0},{"OBJECT_NAME":"ONEWEB-0286","OBJECT_ID":"2021-075B","EPOCH":"2026-05-23T11:51:18.823104","MEAN_MOTION":13.12442477,"ECCENTRICITY":0.000193,"INCLINATION":87.8951,"RA_OF_ASC_NODE":355.5916,"ARG_OF_PERICENTER":89.5454,"MEAN_ANOMALY":270.5895,"EPHEMERIS_TYPE":0,"CLASSIFICATION_TYPE":"U","NORAD_CAT_ID":49076,"ELEMENT_SET_NO":999,"REV_AT_EPOCH":23132,"BSTAR":0.00029099000000000003,"MEAN_MOTION_DOT":1.17e-06,"MEAN_MOTION_DDOT":0.0},{"OBJECT_NAME":"ONEWEB-0287","OBJECT_ID":"2021-075C","EPOCH":"2026-05-23T08:03:08.558208","MEAN_MOTION":13.17651318,"ECCENTRICITY":0.0002085,"INCLINATION":87.9153,"RA_OF_ASC_NODE":10.8083,"ARG_OF_PERICENTER":94.17,"MEAN_ANOMALY":265.967,"EPHEMERIS_TYPE":0,"CLASSIFICATION_TYPE":"U","NORAD_CAT_ID":49077,"ELEMENT_SET_NO":999,"REV_AT_EPOCH":23035,"BSTAR":-2.0703e-05,"MEAN_MOTION_DOT":5e-08,"MEAN_MOTION_DDOT":0.0},{"OBJECT_NAME":"ONEWEB-0288","OBJECT_ID":"2021-075D","EPOCH":"2026-05-23T13:07:07.852224","MEAN_MOTION":13.12442935,"ECCENTRICITY":0.0001839,"INCLINATION":87.8961,"RA_OF_ASC_NODE":355.5555,"ARG_OF_PERICENTER":93.3757,"MEAN_ANOMALY":266.7582,"EPHEMERIS_TYPE":0,"CLASSIFICATION_TYPE":"U","NORAD_CAT_ID":49078,"ELEMENT_SET_NO":999,"REV_AT_EPOCH":23195,"BSTAR":-0.0012819,"MEAN_MOTION_DOT":-4.48e-06,"MEAN_MOTION_DDOT":0.0},{"OBJECT_NAME":"ONEWEB-0289","OBJECT_ID":"2021-075E","EPOCH":"2026-05-23T12:37:31.842336","MEAN_MOTION":13.17650399,"ECCENTRICITY":0.000142,"INCLINATION":87.9159,"RA_OF_ASC_NODE":10.7859,"ARG_OF_PERICENTER":88.6745,"MEAN_ANOMALY":271.4549,"EPHEMERIS_TYPE":0,"CLASSIFICATION_TYPE":"U","NORAD_CAT_ID":49079,"ELEMENT_SET_NO":999,"REV_AT_EPOCH":23095,"BSTAR":-3.2087e-05,"MEAN_MOTION_DOT":0.0,"MEAN_MOTION_DDOT":0.0},{"OBJECT_NAME":"ONEWEB-0290","OBJECT_ID":"2021-075F","EPOCH":"2026-05-23T08:20:10.042944","MEAN_MOTION":13.17649511,"ECCENTRICITY":0.0001311,"INCLINATION":87.9165,"RA_OF_ASC_NODE":10.7922,"ARG_OF_PERICENTER":87.5182,"MEAN_ANOMALY":272.6099,"EPHEMERIS_TYPE":0,"CLASSIFICATION_TYPE":"U","NORAD_CAT_ID":49080,"ELEMENT_SET_NO":999,"REV_AT_EPOCH":23034,"BSTAR":7.884600000000001e-05,"MEAN_MOTION_DOT":4.3e-07,"MEAN_MOTION_DDOT":0.0}]