ONEWEB-0275             
1 48993U 21060AC  26143.30241812  .00000086  00000+0  19073-3 0  9995
2 48993  87.9106 233.7158 0002004  97.2228 262.9131 13.16592494236280
ONEWEB-0276             
1 48994U 21060AD  26143.48765476  .00000046  00000+0  87722-4 0  9995
2 48994  87.9111 233.6791 0002122  97.0649 263.0724 13.16592892236322
ONEWEB-0277             
1 48995U 21060AE  26143.50031872  .00000041  00000+0  74195-4 0  9990
2 48995  87.9103 233.6865 0001845  98.3877 261.7463 13.16592273236311
ONEWEB-0278             
1 48996U 21060AF  26143.49084051  .00000027  00000+0  36873-4 0  9991
2 48996  87.9113 233.6770 0002071 107.2395 252.8962 13.16595715236448
ONEWEB-0279             
1 48997U 21060AG  26143.49874470  .00000099  00000+0  22491-3 0  9993
2 48997  87.9111 233.6739 0001936  93.0329 267.1024 13.16593893236375
ONEWEB-0280             
1 48998U 21060AH  26143.28578781 -.00000037  00000+0 -12943-3 0  9992
2 48998  87.9108 233.7203 0001693 107.3857 252.7459 13.16595889236283
ONEWEB-0281             
1 48999U 21060AJ  26143.51933291  .00000041  00000+0  73059-4 0  9999
2 48999  87.9104 233.6686 0002042 102.6083 257.5276 13.16593769236388
ONEWEB-0282             
1 49000U 21060AK  26143.54942101  .00000066  00000+0  13798-3 0  9996
2 49000  87.9109 233.6721 0001849 100.9923 259.1416 13.16595553236360
ONEWEB-0283             
1 49001U 21060AL  26143.31032666 -.00000123  00000+0 -35630-3 0  9993
2 49001  87.9103 233.7190 0001901  96.0836 264.0511 13.16593708236342
ONEWEB-0284             
1 49002U 21060AM  26143.30400072  .00000104  00000+0  23877-3 0  9990
2 49002  87.9107 233.7130 0001855 110.0479 250.0852 13.16592130236328
ONEWEB-0285             
1 49075U 21075A   26143.51189880  .00000233  00000+0  61323-3 0  9991
2 49075  87.8960 355.5689 0001724  85.3458 274.7867 13.12440775231970
ONEWEB-0286             
1 49076U 21075B   26143.49396786  .00000117  00000+0  29099-3 0  9999
2 49076  87.8951 355.5916 0001930  89.5454 270.5895 13.12442477231320
ONEWEB-0287             
1 49077U 21075C   26143.33551572  .00000005  00000+0 -20703-4 0  9990
2 49077  87.9153  10.8083 0002085  94.1700 265.9670 13.17651318230352
ONEWEB-0288             
1 49078U 21075D   26143.54661866 -.00000448  00000+0 -12819-2 0  9991
2 49078  87.8961 355.5555 0001839  93.3757 266.7582 13.12442935231957
ONEWEB-0289             
1 49079U 21075E   26143.52606299  .00000000  00000+0 -32087-4 0  9993
2 49079  87.9159  10.7859 0001420  88.6745 271.4549 13.17650399230950
ONEWEB-0290             
1 49080U 21075F   26143.34733846  .00000043  00000+0  78846-4 0  9993
2 49080  87.9165  10.7922 0001311  87.5182 272.6099 13.17649511230342
